[{"OBJECT_NAME":"STARLINK-5025","OBJECT_ID":"2022-119AL","EPOCH":"2026-03-09T21:17:37.234464","MEAN_MOTION":15.08837327,"ECCENTRICITY":0.00011602,"INCLINATION":53.2172,"RA_OF_ASC_NODE":313.3021,"ARG_OF_PERICENTER":73.7672,"MEAN_ANOMALY":286.3447,"EPHEMERIS_TYPE":0,"CLASSIFICATION_TYPE":"U","NORAD_CAT_ID":53920,"ELEMENT_SET_NO":999,"REV_AT_EPOCH":19185,"BSTAR":5.8024836e-5,"MEAN_MOTION_DOT":6.36e-6,"MEAN_MOTION_DDOT":0},{"OBJECT_NAME":"SL-14 R\/B","OBJECT_ID":"1991-086B","EPOCH":"2026-03-09T21:12:20.037600","MEAN_MOTION":11.96623945,"ECCENTRICITY":0.15622342,"INCLINATION":82.5616,"RA_OF_ASC_NODE":35.3422,"ARG_OF_PERICENTER":86.2667,"MEAN_ANOMALY":291.495,"EPHEMERIS_TYPE":0,"CLASSIFICATION_TYPE":"U","NORAD_CAT_ID":21820,"ELEMENT_SET_NO":999,"REV_AT_EPOCH":48727,"BSTAR":0.00015922751,"MEAN_MOTION_DOT":8.43e-6,"MEAN_MOTION_DDOT":0}]
